start=new Date('2023-03-14T00:00:00.000Z').valueOf();
sats=[{"EPHEMERIS_TYPE":"0","MEAN_MOTION_DOT":"0.00001189","ELEMENT_SET_NO":"999","MEAN_MOTION_DDOT":"0.0000000000000","CLASSIFICATION_TYPE":"U","EPOCH":"2023-03-13T20:30:14.017824","TLE_LINE2":"2 52858  53.2168 245.5577 0001437  96.4358 263.6798 15.08840075 41093","TLE_LINE1":"1 52858U 22062AE  23072.85432891  .00001189  00000-0  92766-4 0  9997","MEAN_MOTION":"15.08840075","PERIAPSIS":"538.751","GP_ID":"228033631","BSTAR":"0.00009276600000","NORAD_CAT_ID":"52858","LAUNCH_DATE":"2022-06-17","OBJECT_TYPE":"PAYLOAD","COUNTRY_CODE":"US","RCS_SIZE":"LARGE","OBJECT_NAME":"STARLINK-4198","PERIOD":"95.438","REV_AT_EPOCH":"4109","ECCENTRICITY":"0.00014370","APOAPSIS":"540.739","OBJECT_ID":"2022-062AE","DECAY_DATE":null,"TIME_SYSTEM":"UTC","INCLINATION":"53.2168","FILE":"3859631","SITE":"AFETR","SEMIMAJOR_AXIS":"6917.880","REF_FRAME":"TEME","MEAN_ANOMALY":"263.6798","CENTER_NAME":"EARTH","RA_OF_ASC_NODE":"245.5577","ARG_OF_PERICENTER":"96.4358","MEAN_ELEMENT_THEORY":"SGP4"},{"MEAN_MOTION":"15.08844611","TLE_LINE1":"1 52859U 22062AF  23072.90856491  .00000871  00000-0  72777-4 0  9997","PERIAPSIS":"539.063","NORAD_CAT_ID":"52859","GP_ID":"228034382","BSTAR":"0.00007277700000","EPHEMERIS_TYPE":"0","ELEMENT_SET_NO":"999","MEAN_MOTION_DOT":"0.00000871","CLASSIFICATION_TYPE":"U","EPOCH":"2023-03-13T21:48:20.008224","MEAN_MOTION_DDOT":"0.0000000000000","TLE_LINE2":"2 52859  53.2162 245.3150 0000966  95.1861 264.9241 15.08844611 41103","APOAPSIS":"540.400","ECCENTRICITY":"0.00009660","REV_AT_EPOCH":"4110","TIME_SYSTEM":"UTC","OBJECT_ID":"2022-062AF","DECAY_DATE":null,"FILE":"3859631","INCLINATION":"53.2162","ARG_OF_PERICENTER":"95.1861","MEAN_ELEMENT_THEORY":"SGP4","RA_OF_ASC_NODE":"245.3150","CENTER_NAME":"EARTH","SEMIMAJOR_AXIS":"6917.866","MEAN_ANOMALY":"264.9241","REF_FRAME":"TEME","SITE":"AFETR","LAUNCH_DATE":"2022-06-17","OBJECT_TYPE":"PAYLOAD","PERIOD":"95.437","OBJECT_NAME":"STARLINK-4196","RCS_SIZE":"LARGE","COUNTRY_CODE":"US"},{"SITE":"AFETR","MEAN_ANOMALY":"254.0651","SEMIMAJOR_AXIS":"6917.869","REF_FRAME":"TEME","CENTER_NAME":"EARTH","ARG_OF_PERICENTER":"106.0470","RA_OF_ASC_NODE":"245.2822","MEAN_ELEMENT_THEORY":"SGP4","FILE":"3859631","INCLINATION":"53.2144","OBJECT_ID":"2022-062AG","DECAY_DATE":null,"TIME_SYSTEM":"UTC","REV_AT_EPOCH":"4110","ECCENTRICITY":"0.00011740","APOAPSIS":"540.546","RCS_SIZE":"LARGE","COUNTRY_CODE":"US","OBJECT_NAME":"STARLINK-4191","PERIOD":"95.437","OBJECT_TYPE":"PAYLOAD","LAUNCH_DATE":"2022-06-17","BSTAR":"0.00016765000000","GP_ID":"228035132","NORAD_CAT_ID":"52860","PERIAPSIS":"538.922","TLE_LINE1":"1 52860U 22062AG  23072.91592447  .00002382  00000-0  16765-3 0  9991","MEAN_MOTION":"15.08843746","TLE_LINE2":"2 52860  53.2144 245.2822 0001174 106.0470 254.0651 15.08843746 41103","MEAN_MOTION_DDOT":"0.0000000000000","EPOCH":"2023-03-13T21:58:55.874208","CLASSIFICATION_TYPE":"U","MEAN_MOTION_DOT":"0.00002382","ELEMENT_SET_NO":"999","EPHEMERIS_TYPE":"0"},{"OBJECT_TYPE":"PAYLOAD","OBJECT_NAME":"STARLINK-4112","COUNTRY_CODE":"US","RCS_SIZE":"LARGE","PERIOD":"95.437","LAUNCH_DATE":"2022-06-17","INCLINATION":"53.2168","FILE":"3859548","MEAN_ANOMALY":"232.2002","SEMIMAJOR_AXIS":"6917.871","REF_FRAME":"TEME","SITE":"AFETR","ARG_OF_PERICENTER":"127.9121","RA_OF_ASC_NODE":"245.3938","MEAN_ELEMENT_THEORY":"SGP4","CENTER_NAME":"EARTH","ECCENTRICITY":"0.00014480","REV_AT_EPOCH":"4159","APOAPSIS":"540.738","OBJECT_ID":"2022-062AH","DECAY_DATE":null,"TIME_SYSTEM":"UTC","MEAN_MOTION_DDOT":"0.0000000000000","CLASSIFICATION_TYPE":"U","EPOCH":"2023-03-13T21:23:13.296768","TLE_LINE2":"2 52861  53.2168 245.3938 0001448 127.9121 232.2002 15.08843099 41590","EPHEMERIS_TYPE":"0","ELEMENT_SET_NO":"999","MEAN_MOTION_DOT":"0.00010098","GP_ID":"228010109","BSTAR":"0.00065156000000","NORAD_CAT_ID":"52861","MEAN_MOTION":"15.08843099","TLE_LINE1":"1 52861U 22062AH  23072.89112612  .00010098  00000-0  65156-3 0  9992","PERIAPSIS":"538.734"},{"MEAN_MOTION_DDOT":"0.0000000000000","CLASSIFICATION_TYPE":"U","EPOCH":"2023-03-13T21:43:01.989696","TLE_LINE2":"2 52862  53.2174 245.3288 0001307 109.4269 250.6864 15.08845356 41103","EPHEMERIS_TYPE":"0","MEAN_MOTION_DOT":"0.00002932","ELEMENT_SET_NO":"999","BSTAR":"0.00020222000000","GP_ID":"228034131","NORAD_CAT_ID":"52862","TLE_LINE1":"1 52862U 22062AJ  23072.90488414  .00002932  00000-0  20222-3 0  9994","MEAN_MOTION":"15.08845356","PERIAPSIS":"538.825","OBJECT_TYPE":"PAYLOAD","COUNTRY_CODE":"US","RCS_SIZE":"LARGE","OBJECT_NAME":"STARLINK-4010","PERIOD":"95.437","LAUNCH_DATE":"2022-06-17","INCLINATION":"53.2174","FILE":"3859631","SITE":"AFETR","MEAN_ANOMALY":"250.6864","SEMIMAJOR_AXIS":"6917.864","REF_FRAME":"TEME","CENTER_NAME":"EARTH","ARG_OF_PERICENTER":"109.4269","RA_OF_ASC_NODE":"245.3288","MEAN_ELEMENT_THEORY":"SGP4","REV_AT_EPOCH":"4110","ECCENTRICITY":"0.00013070","APOAPSIS":"540.633","OBJECT_ID":"2022-062AJ","DECAY_DATE":null,"TIME_SYSTEM":"UTC"},{"RCS_SIZE":"LARGE","COUNTRY_CODE":"US","OBJECT_NAME":"STARLINK-4270","PERIOD":"95.437","OBJECT_TYPE":"PAYLOAD","LAUNCH_DATE":"2022-06-17","SITE":"AFETR","SEMIMAJOR_AXIS":"6917.867","MEAN_ANOMALY":"275.1450","REF_FRAME":"TEME","CENTER_NAME":"EARTH","ARG_OF_PERICENTER":"84.9688","RA_OF_ASC_NODE":"245.3640","MEAN_ELEMENT_THEORY":"SGP4","FILE":"3859631","INCLINATION":"53.2154","DECAY_DATE":null,"OBJECT_ID":"2022-062AK","TIME_SYSTEM":"UTC","REV_AT_EPOCH":"4110","ECCENTRICITY":"0.00012810","APOAPSIS":"540.618","TLE_LINE2":"2 52863  53.2154 245.3640 0001281  84.9688 275.1450 15.08844484 41101","MEAN_MOTION_DDOT":"0.0000000000000","CLASSIFICATION_TYPE":"U","EPOCH":"2023-03-13T21:32:26.354400","MEAN_MOTION_DOT":"0.00002085","ELEMENT_SET_NO":"999","EPHEMERIS_TYPE":"0","GP_ID":"228034882","BSTAR":"0.00014904000000","NORAD_CAT_ID":"52863","PERIAPSIS":"538.846","TLE_LINE1":"1 52863U 22062AK  23072.89752725  .00002085  00000-0  14904-3 0  9991","MEAN_MOTION":"15.08844484"},{"MEAN_MOTION_DOT":"0.00000286","ELEMENT_SET_NO":"999","EPHEMERIS_TYPE":"0","TLE_LINE2":"2 52864  53.2187 245.3457 0001380  92.7293 267.3857 15.08842956 41109","EPOCH":"2023-03-13T21:37:44.251104","CLASSIFICATION_TYPE":"U","MEAN_MOTION_DDOT":"0.0000000000000","PERIAPSIS":"538.782","TLE_LINE1":"1 52864U 22062AL  23072.90120661  .00000286  00000-0  36038-4 0  9996","MEAN_MOTION":"15.08842956","NORAD_CAT_ID":"52864","GP_ID":"228034633","BSTAR":"0.00003603800000","LAUNCH_DATE":"2022-06-17","PERIOD":"95.437","RCS_SIZE":"LARGE","COUNTRY_CODE":"US","OBJECT_NAME":"STARLINK-4267","OBJECT_TYPE":"PAYLOAD","TIME_SYSTEM":"UTC","OBJECT_ID":"2022-062AL","DECAY_DATE":null,"APOAPSIS":"540.691","REV_AT_EPOCH":"4110","ECCENTRICITY":"0.00013800","CENTER_NAME":"EARTH","ARG_OF_PERICENTER":"92.7293","MEAN_ELEMENT_THEORY":"SGP4","RA_OF_ASC_NODE":"245.3457","SITE":"AFETR","SEMIMAJOR_AXIS":"6917.871","REF_FRAME":"TEME","MEAN_ANOMALY":"267.3857","FILE":"3859631","INCLINATION":"53.2187"},{"TLE_LINE2":"2 52865  53.2136 245.4144 0001116  98.8971 261.2147 15.08837831 41106","MEAN_MOTION_DDOT":"0.0000000000000","EPOCH":"2023-03-13T21:16:32.804256","CLASSIFICATION_TYPE":"U","ELEMENT_SET_NO":"999","MEAN_MOTION_DOT":"0.00002071","EPHEMERIS_TYPE":"0","BSTAR":"0.00014819000000","GP_ID":"228033382","NORAD_CAT_ID":"52865","PERIAPSIS":"538.980","MEAN_MOTION":"15.08837831","TLE_LINE1":"1 52865U 22062AM  23072.88649079  .00002071  00000-0  14819-3 0  9999","OBJECT_NAME":"STARLINK-4274","COUNTRY_CODE":"US","RCS_SIZE":"LARGE","PERIOD":"95.438","OBJECT_TYPE":"PAYLOAD","LAUNCH_DATE":"2022-06-17","MEAN_ANOMALY":"261.2147","SEMIMAJOR_AXIS":"6917.887","REF_FRAME":"TEME","SITE":"AFETR","ARG_OF_PERICENTER":"98.8971","RA_OF_ASC_NODE":"245.4144","MEAN_ELEMENT_THEORY":"SGP4","CENTER_NAME":"EARTH","INCLINATION":"53.2136","FILE":"3859631","DECAY_DATE":null,"OBJECT_ID":"2022-062AM","TIME_SYSTEM":"UTC","ECCENTRICITY":"0.00011160","REV_AT_EPOCH":"4110","APOAPSIS":"540.524"},{"REV_AT_EPOCH":"4104","ECCENTRICITY":"0.00011610","APOAPSIS":"540.551","DECAY_DATE":null,"OBJECT_ID":"2022-062AN","TIME_SYSTEM":"UTC","INCLINATION":"53.2148","FILE":"3859425","SITE":"AFETR","SEMIMAJOR_AXIS":"6917.883","MEAN_ANOMALY":"269.2272","REF_FRAME":"TEME","CENTER_NAME":"EARTH","MEAN_ELEMENT_THEORY":"SGP4","ARG_OF_PERICENTER":"90.8853","RA_OF_ASC_NODE":"247.1666","LAUNCH_DATE":"2022-06-17","OBJECT_TYPE":"PAYLOAD","RCS_SIZE":"LARGE","COUNTRY_CODE":"US","OBJECT_NAME":"STARLINK-4272","PERIOD":"95.438","TLE_LINE1":"1 52866U 22062AN  23072.49640937  .00008560  00000-0  55529-3 0  9993","MEAN_MOTION":"15.08839229","PERIAPSIS":"538.945","BSTAR":"0.00055529000000","GP_ID":"228004247","NORAD_CAT_ID":"52866","EPHEMERIS_TYPE":"0","MEAN_MOTION_DOT":"0.00008560","ELEMENT_SET_NO":"999","MEAN_MOTION_DDOT":"0.0000000000000","CLASSIFICATION_TYPE":"U","EPOCH":"2023-03-13T11:54:49.769568","TLE_LINE2":"2 52866  53.2148 247.1666 0001161  90.8853 269.2272 15.08839229 41042"},{"EPHEMERIS_TYPE":"0","MEAN_MOTION_DOT":"0.00001264","ELEMENT_SET_NO":"999","CLASSIFICATION_TYPE":"U","EPOCH":"2023-03-13T21:05:57.418656","MEAN_MOTION_DDOT":"0.0000000000000","TLE_LINE2":"2 52867  53.2139 245.4501 0001704  73.5954 286.5225 15.08837590 41101","TLE_LINE1":"1 52867U 22062AP  23072.87913679  .00001264  00000-0  97478-4 0  9996","MEAN_MOTION":"15.08837590","PERIAPSIS":"538.574","NORAD_CAT_ID":"52867","BSTAR":"0.00009747800000","GP_ID":"228034383","LAUNCH_DATE":"2022-06-17","OBJECT_TYPE":"PAYLOAD","PERIOD":"95.438","COUNTRY_CODE":"US","RCS_SIZE":"LARGE","OBJECT_NAME":"STARLINK-4126","APOAPSIS":"540.932","REV_AT_EPOCH":"4110","ECCENTRICITY":"0.00017040","TIME_SYSTEM":"UTC","DECAY_DATE":null,"OBJECT_ID":"2022-062AP","INCLINATION":"53.2139","FILE":"3859631","CENTER_NAME":"EARTH","MEAN_ELEMENT_THEORY":"SGP4","ARG_OF_PERICENTER":"73.5954","RA_OF_ASC_NODE":"245.4501","SITE":"AFETR","MEAN_ANOMALY":"286.5225","SEMIMAJOR_AXIS":"6917.888","REF_FRAME":"TEME"}];
